{
    "links": {
        "self": "http://www.neowsapp.com/rest/v1/neo/3733263?api_key=iIulBulltgU6a56xZRHN4H3l9WmuAYTsLGpBGhQ2"
    },
    "id": "3733263",
    "neo_reference_id": "3733263",
    "name": "(2015 VB2)",
    "designation": "2015 VB2",
    "nasa_jpl_url": "http://ssd.jpl.nasa.gov/sbdb.cgi?sstr=3733263",
    "absolute_magnitude_h": 25.2,
    "estimated_diameter": {
        "kilometers": {
            "estimated_diameter_min": 0.0242412481,
            "estimated_diameter_max": 0.0542050786
        },
        "meters": {
            "estimated_diameter_min": 24.2412481101,
            "estimated_diameter_max": 54.2050786336
        },
        "miles": {
            "estimated_diameter_min": 0.0150628086,
            "estimated_diameter_max": 0.0336814639
        },
        "feet": {
            "estimated_diameter_min": 79.5316564495,
            "estimated_diameter_max": 177.8381901842
        }
    },
    "is_potentially_hazardous_asteroid": false,
    "close_approach_data": [
        {
            "close_approach_date": "2015-11-18",
            "close_approach_date_full": "2015-Nov-18 11:26",
            "epoch_date_close_approach": 1447845960000,
            "relative_velocity": {
                "kilometers_per_second": "7.1150237208",
                "kilometers_per_hour": "25614.0853948159",
                "miles_per_hour": "15915.5965610177"
            },
            "miss_distance": {
                "astronomical": "0.0587114685",
                "lunar": "22.8387612465",
                "kilometers": "8783110.632172095",
                "miles": "5457571.875861111"
            },
            "orbiting_body": "Earth"
        }
    ],
    "orbital_data": {
        "orbit_id": "13",
        "orbit_determination_date": "2017-04-06 08:30:58",
        "first_observation_date": "2015-11-03",
        "last_observation_date": "2015-11-22",
        "data_arc_in_days": 19,
        "observations_used": 67,
        "orbit_uncertainty": "7",
        "minimum_orbit_intersection": ".058892",
        "jupiter_tisserand_invariant": "3.753",
        "epoch_osculation": "2459000.5",
        "eccentricity": ".4735020689931918",
        "semi_major_axis": "1.938776766618258",
        "inclination": "6.203365970225851",
        "ascending_node_longitude": "219.2006917281969",
        "orbital_period": "986.0300189709506",
        "perihelion_distance": "1.020761956308582",
        "perihelion_argument": "215.5640806510428",
        "aphelion_distance": "2.856791576927934",
        "perihelion_time": "2459331.744980492898",
        "mean_anomaly": "239.0623097845497",
        "mean_motion": ".365100446308629",
        "equinox": "J2000",
        "orbit_class": {
            "orbit_class_type": "AMO",
            "orbit_class_description": "Near-Earth asteroid orbits similar to that of 1221 Amor",
            "orbit_class_range": "1.017 AU < q (perihelion) < 1.3 AU"
        }
    },
    "is_sentry_object": false
}